{"type": "FeatureCollection", "features": [ {"type": "Feature", "properties": {"norad_id": 36232, "name": "FENGYUN 1C DEB", "group": "fengyun-1c-debris", "lat": -18.613309194972363, "lon": 162.14615949288066, "alt_km": 927.7635910197196, "timestamp": "2025-12-27T11:23:20.185731+00:00", "meta": {"OBJECT_NAME": "FENGYUN 1C DEB", "OBJECT_ID": "1999-025DVH", "EPOCH": "2025-12-24T16:08:42.890496", "MEAN_MOTION": 14.12517466, "ECCENTRICITY": 0.01185182, "INCLINATION": 98.7058, "RA_OF_ASC_NODE": 342.3813, "ARG_OF_PERICENTER": 354.2561, "MEAN_ANOMALY": 5.7245, "EPHEMERIS_TYPE": 0, "CLASSIFICATION_TYPE": "U", "NORAD_CAT_ID": 36232, "ELEMENT_SET_NO": 999, "REV_AT_EPOCH": 61904, "BSTAR": 0.00034453798, "MEAN_MOTION_DOT": 6.37e-06, "MEAN_MOTION_DDOT": 0}, "tle": {"line1": "1 36232U 99025DVH 25358.67271864  .00000637  00000+0  34454-3 0  9993", "line2": "2 36232  98.7058 342.3813 0118518 354.2561   5.7245 14.12517466619049"}}, "geometry": {"type": "Point", "coordinates": [162.14615949288066, -18.613309194972363]}}, {"type": "Feature", "properties": {"norad_id": 36234, "name": "FENGYUN 1C DEB", "group": "fengyun-1c-debris", "lat": 13.240877284388016, "lon": 67.65885506917283, "alt_km": 868.9864863234798, "timestamp": "2025-12-27T11:23:20.185743+00:00", "meta": {"OBJECT_NAME": "FENGYUN 1C DEB", "OBJECT_ID": "1999-025DVK", "EPOCH": "2025-12-08T10:31:28.850304", "MEAN_MOTION": 13.45655828, "ECCENTRICITY": 0.03174488, "INCLINATION": 99.0031, "RA_OF_ASC_NODE": 52.6849, "ARG_OF_PERICENTER": 39.1104, "MEAN_ANOMALY": 323.2521, "EPHEMERIS_TYPE": 0, "CLASSIFICATION_TYPE": "U", "NORAD_CAT_ID": 36234, "ELEMENT_SET_NO": 999, "REV_AT_EPOCH": 87889, "BSTAR": 0.00050484626, "MEAN_MOTION_DOT": 3.7e-06, "MEAN_MOTION_DDOT": 0}, "tle": {"line1": "1 36234U 99025DVK 25342.43852836  .00000370  00000+0  50485-3 0  9992", "line2": "2 36234  99.0031  52.6849 0317448  39.1104 323.2521 13.45655828878896"}}, "geometry": {"type": "Point", "coordinates": [67.65885506917283, 13.240877284388016]}}, {"type": "Feature", "properties": {"norad_id": 36236, "name": "FENGYUN 1C DEB", "group": "fengyun-1c-debris", "lat": -76.17585093982764, "lon": -178.31064508539978, "alt_km": 906.8465547589813, "timestamp": "2025-12-27T11:23:20.185753+00:00", "meta": {"OBJECT_NAME": "FENGYUN 1C DEB", "OBJECT_ID": "1999-025DVM", "EPOCH": "2025-12-10T20:13:13.163808", "MEAN_MOTION": 13.81954009, "ECCENTRICITY": 0.0149575, "INCLINATION": 98.85, "RA_OF_ASC_NODE": 25.3566, "ARG_OF_PERICENTER": 3.3066, "MEAN_ANOMALY": 356.9043, "EPHEMERIS_TYPE": 0, "CLASSIFICATION_TYPE": "U", "NORAD_CAT_ID": 36236, "ELEMENT_SET_NO": 999, "REV_AT_EPOCH": 59721, "BSTAR": 0.00040381, "MEAN_MOTION_DOT": 4.31e-06, "MEAN_MOTION_DDOT": 0}, "tle": {"line1": "1 36236U 99025DVM 25344.84251347  .00000431  00000+0  40381-3 0  9993", "line2": "2 36236  98.8500  25.3566 0149575   3.3066 356.9043 13.81954009597212"}}, "geometry": {"type": "Point", "coordinates": [-178.31064508539978, -76.17585093982764]}}, {"type": "Feature", "properties": {"norad_id": 36238, "name": "FENGYUN 1C DEB", "group": "fengyun-1c-debris", "lat": -32.01282211748857, "lon": 147.96677602727735, "alt_km": 844.0417480872238, "timestamp": "2025-12-27T11:23:20.185763+00:00", "meta": {"OBJECT_NAME": "FENGYUN 1C DEB", "OBJECT_ID": "1999-025DVP", "EPOCH": "2025-12-26T08:52:56.657280", "MEAN_MOTION": 14.12394497, "ECCENTRICITY": 0.0020168, "INCLINATION": 98.6489, "RA_OF_ASC_NODE": 332.3612, "ARG_OF_PERICENTER": 240.996, "MEAN_ANOMALY": 118.9191, "EPHEMERIS_TYPE": 0, "CLASSIFICATION_TYPE": "U", "NORAD_CAT_ID": 36238, "ELEMENT_SET_NO": 999, "REV_AT_EPOCH": 87210, "BSTAR": 8.9358e-05, "MEAN_MOTION_DOT": 1.23e-06, "MEAN_MOTION_DDOT": 0}, "tle": {"line1": "1 36238U 99025DVP 25360.37010020  .00000123  00000+0  89358-4 0  9998", "line2": "2 36238  98.6489 332.3612 0020168 240.9960 118.9191 14.12394497872107"}}, "geometry": {"type": "Point", "coordinates": [147.96677602727735, -32.01282211748857]}}, {"type": "Feature", "properties": {"norad_id": 36244, "name": "FENGYUN 1C DEB", "group": "fengyun-1c-debris", "lat": 62.80070345080031, "lon": 94.53811372844824, "alt_km": 837.8361206686113, "timestamp": "2025-12-27T11:23:20.185773+00:00", "meta": {"OBJECT_NAME": "FENGYUN 1C DEB", "OBJECT_ID": "1999-025DVV", "EPOCH": "2025-12-25T18:38:39.990336", "MEAN_MOTION": 14.25065272, "ECCENTRICITY": 0.00498125, "INCLINATION": 98.9262, "RA_OF_ASC_NODE": 110.6194, "ARG_OF_PERICENTER": 246.8234, "MEAN_ANOMALY": 112.7693, "EPHEMERIS_TYPE": 0, "CLASSIFICATION_TYPE": "U", "NORAD_CAT_ID": 36244, "ELEMENT_SET_NO": 999, "REV_AT_EPOCH": 92164, "BSTAR": 0.0017678365, "MEAN_MOTION_DOT": 4.153e-05, "MEAN_MOTION_DDOT": 0}, "tle": {"line1": "1 36244U 99025DVV 25359.77685174  .00004153  00000+0  17678-2 0  9996", "line2": "2 36244  98.9262 110.6194 0049812 246.8234 112.7693 14.25065272921647"}}, "geometry": {"type": "Point", "coordinates": [94.53811372844824, 62.80070345080031]}}, {"type": "Feature", "properties": {"norad_id": 36247, "name": "FENGYUN 1C DEB", "group": "fengyun-1c-debris", "lat": 69.05249730298748, "lon": -143.77638649684377, "alt_km": 836.5898124057148, "timestamp": "2025-12-27T11:23:20.185784+00:00", "meta": {"OBJECT_NAME": "FENGYUN 1C DEB", "OBJECT_ID": "1999-025DVY", "EPOCH": "2025-12-23T18:06:44.758080", "MEAN_MOTION": 14.33618414, "ECCENTRICITY": 0.0186555, "INCLINATION": 98.2674, "RA_OF_ASC_NODE": 10.345, "ARG_OF_PERICENTER": 0.9535, "MEAN_ANOMALY": 359.197, "EPHEMERIS_TYPE": 0, "CLASSIFICATION_TYPE": "U", "NORAD_CAT_ID": 36247, "ELEMENT_SET_NO": 999, "REV_AT_EPOCH": 70420, "BSTAR": 0.00052763, "MEAN_MOTION_DOT": 1.729e-05, "MEAN_MOTION_DDOT": 0}, "tle": {"line1": "1 36247U 99025DVY 25357.75468470  .00001729  00000+0  52763-3 0  9994", "line2": "2 36247  98.2674  10.3450 0186555   0.9535 359.1970 14.33618414704207"}}, "geometry": {"type": "Point", "coordinates": [-143.77638649684377, 69.05249730298748]}}, {"type": "Feature", "properties": {"norad_id": 36254, "name": "FENGYUN 1C DEB", "group": "fengyun-1c-debris", "lat": 19.547680575476573, "lon": -44.00796175571679, "alt_km": 474.68441174457985, "timestamp": "2025-12-27T11:23:20.185794+00:00", "meta": {"OBJECT_NAME": "FENGYUN 1C DEB", "OBJECT_ID": "1999-025DWF", "EPOCH": "2025-12-05T14:18:33.769152", "MEAN_MOTION": 15.16034114, "ECCENTRICITY": 0.00460205, "INCLINATION": 99.5281, "RA_OF_ASC_NODE": 291.8918, "ARG_OF_PERICENTER": 66.714, "MEAN_ANOMALY": 293.892, "EPHEMERIS_TYPE": 0, "CLASSIFICATION_TYPE": "U", "NORAD_CAT_ID": 36254, "ELEMENT_SET_NO": 999, "REV_AT_EPOCH": 60668, "BSTAR": 0.005730812, "MEAN_MOTION_DOT": 0.00114745, "MEAN_MOTION_DDOT": 0}, "tle": {"line1": "1 36254U 99025DWF 25339.59622418  .00114745  00000+0  57308-2 0  9990", "line2": "2 36254  99.5281 291.8918 0046020  66.7140 293.8920 15.16034114606685"}}, "geometry": {"type": "Point", "coordinates": [-44.00796175571679, 19.547680575476573]}}, {"type": "Feature", "properties": {"norad_id": 36255, "name": "FENGYUN 1C DEB", "group": "fengyun-1c-debris", "lat": 40.768296850045665, "lon": -84.72163965118682, "alt_km": 757.4729106395716, "timestamp": "2025-12-27T11:23:20.185804+00:00", "meta": {"OBJECT_NAME": "FENGYUN 1C DEB", "OBJECT_ID": "1999-025DWG", "EPOCH": "2025-12-19T13:28:01.680384", "MEAN_MOTION": 14.36594643, "ECCENTRICITY": 0.0064178, "INCLINATION": 99.4355, "RA_OF_ASC_NODE": 274.859, "ARG_OF_PERICENTER": 143.5444, "MEAN_ANOMALY": 35.1872, "EPHEMERIS_TYPE": 0, "CLASSIFICATION_TYPE": "U", "NORAD_CAT_ID": 36255, "ELEMENT_SET_NO": 999, "REV_AT_EPOCH": 64108, "BSTAR": 0.00048244, "MEAN_MOTION_DOT": 1.401e-05, "MEAN_MOTION_DDOT": 0}, "tle": {"line1": "1 36255U 99025DWG 25353.56113056  .00001401  00000+0  48244-3 0  9991", "line2": "2 36255  99.4355 274.8590 0064178 143.5444  35.1872 14.36594643641084"}}, "geometry": {"type": "Point", "coordinates": [-84.72163965118682, 40.768296850045665]}}, {"type": "Feature", "properties": {"norad_id": 36258, "name": "FENGYUN 1C DEB", "group": "fengyun-1c-debris", "lat": 29.625140608566348, "lon": 27.52951387149771, "alt_km": 564.1573193829727, "timestamp": "2025-12-27T11:23:20.185814+00:00", "meta": {"OBJECT_NAME": "FENGYUN 1C DEB", "OBJECT_ID": "1999-025DWK", "EPOCH": "2025-12-26T07:34:35.539104", "MEAN_MOTION": 14.74917455, "ECCENTRICITY": 0.0173519, "INCLINATION": 99.0855, "RA_OF_ASC_NODE": 31.4506, "ARG_OF_PERICENTER": 83.6369, "MEAN_ANOMALY": 278.4566, "EPHEMERIS_TYPE": 0, "CLASSIFICATION_TYPE": "U", "NORAD_CAT_ID": 36258, "ELEMENT_SET_NO": 999, "REV_AT_EPOCH": 91022, "BSTAR": 0.00031391, "MEAN_MOTION_DOT": 2.616e-05, "MEAN_MOTION_DDOT": 0}, "tle": {"line1": "1 36258U 99025DWK 25360.31568911  .00002616  00000+0  31391-3 0  9993", "line2": "2 36258  99.0855  31.4506 0173519  83.6369 278.4566 14.74917455910221"}}, "geometry": {"type": "Point", "coordinates": [27.52951387149771, 29.625140608566348]}}, {"type": "Feature", "properties": {"norad_id": 36260, "name": "FENGYUN 1C DEB", "group": "fengyun-1c-debris", "lat": -81.31550859773775, "lon": 89.55603315801011, "alt_km": 843.6632866448426, "timestamp": "2025-12-27T11:23:20.185824+00:00", "meta": {"OBJECT_NAME": "FENGYUN 1C DEB", "OBJECT_ID": "1999-025DWM", "EPOCH": "2025-12-24T19:20:24.734112", "MEAN_MOTION": 14.15381135, "ECCENTRICITY": 0.00153864, "INCLINATION": 98.6615, "RA_OF_ASC_NODE": 0.6385, "ARG_OF_PERICENTER": 213.0221, "MEAN_ANOMALY": 146.9994, "EPHEMERIS_TYPE": 0, "CLASSIFICATION_TYPE": "U", "NORAD_CAT_ID": 36260, "ELEMENT_SET_NO": 999, "REV_AT_EPOCH": 87979, "BSTAR": 0.00015734209, "MEAN_MOTION_DOT": 2.64e-06, "MEAN_MOTION_DDOT": 0}, "tle": {"line1": "1 36260U 99025DWM 25358.80584183  .00000264  00000+0  15734-3 0  9996", "line2": "2 36260  98.6615   0.6385 0015386 213.0221 146.9994 14.15381135879794"}}, "geometry": {"type": "Point", "coordinates": [89.55603315801011, -81.31550859773775]}}]}